name,lat,lng,city,country,meanviews,numtalks
 OK Go,32.7459645,-96.9977846,Grand Prairie,United States,1493866,1
 Silk Road Ensemble,48.8588897,2.3200410217200766,Paris,France,640734,1
 Sofi Tukker,-24.3088036,-54.748267074688144,Katueté,Paraguay,815611,1
AJ Jacobs,40.7127281,-74.0060152,New York,United States,1622792,3
Aakash Odedra,52.4796992,-1.9026911,Birmingham,United Kingdom,817014,1
Aaron Koblin,34.0194704,-118.491227,Santa Monica,United States,1474192,1
Aaron O'Connell,39.7589478,-84.1916069,Dayton,United States,1272198,1
Abha Dawesar,28.6138954,77.2090057,New Delhi,India,1245695,1
Abigail Washburn,42.0470043,-87.6846053,Evanston,United States,981351,1
Abraham Verghese,9.0358287,38.7524127,Addis Ababa,Ethiopia,1390908,1
Adam Davidson,34.0536909,-118.242766,Los Angeles,United States,783528,1
Adam Driver,32.7174202,-117.1627728,San Diego,United States,3016666,1
Adam Savage,40.7127281,-74.0060152,New York,United States,1435186,3
Adam Spencer,-33.8698439,151.2082848,Sydney,Australia,2014461,1
Aditi Shankardass,51.4893335,-0.1440550845276872,London,United Kingdom,957087,1
Adora Svitak,44.0462362,-123.0220289,Springfield,United States,4782854,1
Ahn Trio,32.7762719,-96.7968559,Dallas,United States,746852,1
Aimee Mullins,40.6022059,-75.4712794,Allentown,United States,2179948,3
Al Gore,38.8950368,-77.0365427,Washington D.C,United States,1837906,4
Al Seckel,40.7127281,-74.0060152,New York,United States,2138907,1
Alaa Murabit,52.131802,-106.660767,Saskatoon,Canada,2312512,1
Alain de Botton,47.3744489,8.5410422,Zurich,Switzerland,3996817,2
Alan Kay,42.1018764,-72.5886727,Springfield,United States,777609,1
Alan Siegel,41.8755616,-87.6244212,Chicago,United States,876649,1
Alan Smith,52.4796992,-1.9026911,Birmingham,United Kingdom,1369939,1
Alberto Cairo,43.3709703,-8.3959425,A Coruña,Spain,802688,1
Alejandro Aravena,-33.4377756,-70.6504502,Santiago,Chile,1652993,1
Alejandro Sánchez Alvarado,10.5060934,-66.9146008,Caracas,Venezuela,1059199,1
Alex Kipman,-25.4295963,-49.2712724,Curitiba,Brazil,2224913,1
Alex Steffen,37.8044557,-122.271356,Oakland,United States,1188374,2
Alexa Meade,38.8950368,-77.0365427,Washington D.C,United States,2682427,1
Alexander Betts,51.4538022,-2.5972985,Bristol,United Kingdom,1627779,2
Alexander Tsiaras,42.7656251,-71.4677032,Nashua,United States,6064898,1
Alexander Wagner,52.5170365,13.3888599,Berlin,Germany,621431,1
Alexis Ohanian,40.7127281,-74.0060152,New York,United States,2066733,1
Alice Rawsthorn,53.4794892,-2.2451148,Manchester,United Kingdom,914011,1
Alison Gopnik,39.9439109,-75.18376416294248,Philadelphia,United States,2901853,1
Alison Killing,54.9738474,-1.6131572,Newcastle upon Tyne,United Kingdom,1342220,2
Allan Adams,4.6529539,-74.0835643,Bogota,Colombia,1984797,2
Allan Savory,-20.1053948,28.5426856,Bulawayo,Zimbabwe,4191678,1
Amanda Bennett,52.2055314,0.1186637,Cambridge,United Kingdom,986726,1
Amanda Burden,40.7127281,-74.0060152,New York,United States,1061964,1
Amanda Palmer,40.7127281,-74.0060152,New York,United States,9006600,1
Amber Case,45.5202471,-122.674194,Portland,United States,1475333,1
Amit Sood,23.2584857,77.401989,Bhopal,India,768146,2
Amory Lovins,38.8950368,-77.0365427,Washington D.C,United States,988514,2
Amos Winter,-43.530955,172.6364343,Christchurch,New Zealand,1004016,1
Amy Lockwood,45.4208777,-75.6901106,(Old) Ottawa,Canada,834926,1
Amy Purdy,36.1672559,-115.148516,Las Vegas,United States,1624184,1
Amy Tan,40.7127281,-74.0060152,New York,United States,2477746,1
Amy Webb,41.8755616,-87.6244212,Chicago,United States,6298610,1
Ananda Shankar Jayant,8.7284271,77.7112925,Tirunelveli,India,587639,1
Anant Agarwal,28.6273928,77.1716954,New Delhi,India,1072727,1
Anas Aremeyaw Anas,5.5571096,-0.2012376,Accra,Ghana,1421509,1
Andreas Ekström,60.3943055,5.3259192,Bergen,Norway,1396735,1
Andreas Schleicher,53.5672881,9.941726150411604,Hamburg,Germany,699088,1
Andrew Bird,51.5074456,-0.1277653,City of Westminster,United Kingdom,1231423,1
Andrew Connolly,53.3493795,-6.2605593,Dublin,Ireland,1223720,1
Andrew Fitzgerald,39.2908816,-76.610759,Baltimore,United States,1000495,1
Andrew Mwenda,0.6561907,30.2779432,Fort Portal City,Uganda,722877,1
Andrew Pelling,52.5847651,-2.127567,Wolverhampton,United Kingdom,1191591,1
Andrew Solomon,40.7896239,-73.9598939,New York,United States,5366405,3
Andrew Youn,29.9759983,-90.0782127,New Orleans,United States,1173235,1
Andy Puddicombe,51.4538022,-2.5972985,Bristol,United Kingdom,8033595,1
Andy Yen,24.163162,120.6478282,Taichung,Taiwan,1571516,1
Angela Belcher,29.4246002,-98.4951405,San Antonio,United States,862689,1
Angela Lee Duckworth,13.7524938,100.4935089,Bangkok,Thailand,12039978,1
Angélica Dass,-22.9110137,-43.2093727,Rio de Janeiro,Brazil,1961502,1
Ani Liu,40.7127281,-74.0060152,New York,United States,760537,1
Anil Ananthaswamy,13.0836939,80.270186,Chennai,India,537035,1
Anjan Chatterjee,28.6138954,77.2090057,New Delhi,India,1436714,1
Ann Cooper,-33.7971937,151.2879845,Sydney,Australia,1137771,1
Ann Morgan,51.5307156,-0.4800361493026331,London,United Kingdom,1446267,1
Anna Deavere Smith,39.2908816,-76.610759,Baltimore,United States,978825,1
Anne Lamott,37.7790262,-122.419906,San Francisco,United States,1890978,1
Anne-Marie Slaughter,38.029306,-78.4766781,Charlottesville,United States,1424893,1
Annie Lennox,57.1482429,-2.0928095,Aberdeen City,United Kingdom,484254,1
Anote Tong,3.872,-159.31701784999998,Tabuaeran,Kiribati,1054718,1
Anthony Atala,-6.8699697,-75.0458515,Vargas Guerra,Peru,2244423,2
Anthony D. Romero,40.7127281,-74.0060152,New York,United States,925733,1
Anthony Goldbloom,-37.8142454,144.9631732,Melbourne,Australia,1929261,1
Antonio Damasio,38.7077507,-9.1365919,Lisbon,Portugal,1692225,1
Antony Gormley,51.5074456,-0.1277653,City of Westminster,United Kingdom,464213,1
António Guterres,38.7077507,-9.1365919,Lisbon,Portugal,1117165,1
Anupam Mishra,18.9068356,75.6741579,Beed,India,833308,1
Aparna Rao,28.6138954,77.2090057,New Delhi,India,920438,2
Arianna Huffington,37.9755648,23.7348324,Athens,Greece,4241096,1
Ariel Garten,43.6534817,-79.3839347,Old Toronto,Canada,399314,1
Arthur Brooks,52.4142766,1.6663769,East Suffolk,United Kingdom,1132964,1
Arthur Ganson,41.764582,-72.6908547,Hartford,United States,672113,1
Arunachalam Muruganantham,11.0018115,76.9628425,Coimbatore,India,1115222,1
Arvind Gupta,31.3323762,75.576889,Jalandhar,India,1367702,1
Ashley Judd,34.2661558,-118.5174342,Los Angeles,United States,1422701,1
Astro Teller,52.2055314,0.1186637,Cambridge,United Kingdom,2300106,1
Atul Gawande,40.7127281,-74.0060152,New York,United States,1654299,1
Aubrey de Grey,51.4893335,-0.1440550845276872,London,United Kingdom,3277740,1
Auke Ijspeert,46.2047169,6.1423106290939335,Geneva,Switzerland,1805637,1
Avi Reichental,30.8124247,34.8594762,Ramat Negev Regional Council,Israel,2526255,1
Ayah Bdeir,45.5031824,-73.5698065,Montreal,Canada,1168080,1
Aziz Abu Sarah,31.7731513,35.259589,al-Eizariya,Palestine,1301734,1
Aziza Chaouni,34.0346534,-5.0161926,Fez,Morocco,668555,1
BLACK,53.4071991,-2.99168,Liverpool,United Kingdom,7373875,1
Bahia Shehab,33.88922645,35.50255852895232,Basta Tahta,Lebanon,1024326,1
Barry Schuler,40.7215682,-74.047455,Jersey City,United States,389420,1
Barry Schwartz,39.9527237,-75.1635262,Philadelphia,United States,4195070,4
Beardyman,51.5074456,-0.1277653,City of Westminster,United Kingdom,2067955,1
Beeban Kidron,41.332052,19.8048247,Tirana,Albania,765840,1
Bel Pesce,-23.5506507,-46.6333824,São Paulo,Brazil,4728000,1
Ben Cameron,39.7683331,-86.1583502,Indianapolis,United States,497710,1
Ben Goldacre,51.4893335,-0.1440550845276872,London,United Kingdom,2216226,2
Ben Katchor,40.7127281,-74.0060152,New York,United States,294396,1
Ben Saunders,26.1223084,-80.1433786,Fort Lauderdale,United States,1191722,3
Benjamin Barber,40.7127281,-74.0060152,New York,United States,719821,1
Benoit Mandelbrot,52.2337172,21.071432235636493,Warsaw,Poland,1212079,1
Bernie Krause,42.3315509,-83.0466403,Detroit,United States,1022050,1
Bertrand Piccard,46.5218269,6.6327025,Lausanne,Switzerland,778978,1
Beth Noveck,39.9526791,-74.1968257,Toms River,United States,516355,1
Bettina Warburg,53.5672881,9.941726150411604,Hamburg,Germany,1985742,1
Bill Ford,42.3315509,-83.0466403,Detroit,United States,800056,1
Bill Gates,47.6038321,-122.330062,Seattle,United States,2655083,5
Bill Joy,32.5135356,-93.7477839,Shreveport,United States,487378,1
Bill Strickland,40.4416941,-79.9900861,Pittsburgh,United States,611092,1
Bill and Melinda Gates,47.6038321,-122.330062,Seattle,United States,3130752,1
Billie Jean King,33.7690164,-118.191604,Long Beach,United States,947562,1
Billy Collins,40.7896239,-73.9598939,New York,United States,1342832,2
Billy Graham,35.2272086,-80.8430827,Charlotte,United States,1532675,1
Bjarke Ingels,55.6867243,12.5700724,Copenhagen,Denmark,1276199,2
Blaise Agüera y Arcas,41.8239891,-71.4128343,Providence,United States,2634735,3
Bob Mankoff,40.8466508,-73.8785937,New York,United States,1168185,1
Bobby McFerrin,40.7127281,-74.0060152,New York,United States,3302312,1
Boghuma Kabisen Titanji,3.8689867,11.5213344,Yaoundé,Cameroon,478878,1
Bonnie Bassler,41.8755616,-87.6244212,Chicago,United States,2192828,1
Bono,53.3493795,-6.2605593,Dublin,Ireland,1183663,2
Bran Ferren,40.7127281,-74.0060152,New York,United States,1028312,1
Brenda Laurel,39.9622601,-83.0007065,Columbus,United States,382517,1
Brenda Romero,44.694285,-75.486374,City of Ogdensburg,United States,490092,1
Brené Brown,29.4246002,-98.4951405,San Antonio,United States,19578522,2
Brewster Kahle,40.7127281,-74.0060152,New York,United States,445781,1
Brian Cox,56.4605938,-2.97019,Dundee,United Kingdom,1879827,3
Brian Greene,34.1866193,-118.4486675,Los Angeles,United States,3723390,2
Brian Little,54.9738474,-1.6131572,Newcastle upon Tyne,United Kingdom,4235594,1
Bruce Aylward,47.5614705,-52.7126162,St. John's,Canada,684294,2
Bruce Feiler,32.0790074,-81.0921335,Savannah,United States,934762,2
Bruce McCall,44.5014007,-79.7038708,Oro-Medonte,Canada,396905,1
Bruce Schneier,40.7127281,-74.0060152,New York,United States,744089,1
Bunker Roy,23.667122,86.9420671,Asansol,India,3630894,1
Béatrice Coron,45.5662672,5.9203636,Chambéry,France,933319,1
C.K. Williams,40.735657,-74.1723667,Newark,United States,246094,1
Caitlin Doughty,21.48343645,-158.03648372697478,Waipahu,United States,933978,1
Cameron Russell,52.2055314,0.1186637,Cambridge,United Kingdom,19787465,1
Cameron Sinclair,-38.2015815,145.242198,Melbourne,Australia,811299,2
Candy Chang,22.350627,114.1849161,Sha Tin District,China,4922118,1
Carin Bondar,49.2067726,-122.9108818,New Westminster,Canada,2379244,1
Carl Safina,40.6526006,-73.9497211,New York,United States,1285859,2
Carlo Ratti,45.0677551,7.6824892,Turin,Italy,657251,1
Carmen Agra Deedy,23.135305,-82.3589631,Havana,Cuba,672797,1
Carne Ross,51.5307156,-0.4800361493026331,London,United Kingdom,343532,1
Caroline Casey,-37.8142454,144.9631732,Melbourne,Australia,2030154,1
Caroline Paul,40.7127281,-74.0060152,New York,United States,1465808,1
Carolyn Bertozzi,42.3554334,-71.060511,Boston,United States,727807,1
Carolyn Jones,49.2608724,-123.113952,Vancouver,Canada,1079349,1
Carolyn Porco,40.8466508,-73.8785937,New York,United States,1756143,2
Carrie Poppy,-33.8698439,151.2082848,Sydney,Australia,1257858,1
Cary Fowler,35.1460249,-90.0517638,Memphis,United States,679728,1
Cat Laine,40.8466508,-73.8785937,New York,United States,154698,1
Catherine Mohr,-45.8740984,170.5035755,Dunedin,New Zealand,723760,2
Cesar Kuriyama,-12.0621065,-77.0365256,Lima Metropolitan Area,Peru,1666552,1
Charity Tillemann-Dick,39.7392364,-104.984862,Denver,United States,521502,1
Charles Anderson,38.6280278,-90.1910154,St. Louis,United States,553253,1
Charles Fleischer,38.8950368,-77.0365427,Washington D.C,United States,1055904,1
Charles Hazlewood,51.2912247,-0.2326709,Reigate and Banstead,United Kingdom,502832,1
Charles Robertson,53.3493795,-6.2605593,Dublin,Ireland,1204089,1
Chelsea Shields,40.2337289,-111.6587085,Provo,United States,1452861,1
Chimamanda Ngozi Adichie,6.4499833,7.5000007,Enugu,Nigeria,7308397,2
Chinaka Hodge,37.8044557,-122.271356,Oakland,United States,1119309,1
Chip Conley,33.7500378,-117.8704931,Santa Ana,United States,2785058,1
Chip Kidd,40.335345,-75.9279495,Reading,United States,1731531,2
Chris Abani,5.8837902,7.9372068,Afikpo,Nigeria,702781,2
Chris Anderson,51.5074456,-0.1277653,City of Westminster,United Kingdom,1371840,4
Chris Anderson (TED),24.8546842,67.0207055,Karachi,Pakistan,659450,1
Chris Bliss,38.8950368,-77.0365427,Washington D.C,United States,713999,1
Chris Hadfield,42.9743821,-82.403533,Sarnia,Canada,4790701,1
Chris Kluwe,39.9527237,-75.1635262,Philadelphia,United States,1194762,1
Chris Milk,40.7127281,-74.0060152,New York,United States,1151937,2
Christiana Figueres,9.9325427,-84.0795782,San José,Costa Rica,1031398,1
Christien Meindertsma,52.0907006,5.1215634,Utrecht,Netherlands,1157394,1
Christine Sun Kim,33.7500378,-117.8704931,Santa Ana,United States,1242903,1
"Christopher ""moot"" Poole""",40.7127281,-74.0060152,New York,United States,1451649,1
Christopher Bell,41.8755616,-87.6244212,Chicago,United States,1026017,1
Christopher Ryan,51.5122764,-0.1883854,London,United Kingdom,1981978,1
Christopher Soghoian,37.7790262,-122.419906,San Francisco,United States,1132265,3
Claron McFadden,40.7127281,-74.0060152,New York,United States,400082,1
Clay Shirky,38.951883,-92.3337366,Columbia,United States,1250086,5
Clifford Stoll,42.8867166,-78.8783922,Buffalo,United States,2283491,1
Clint Smith,29.9759983,-90.0782127,New Orleans,United States,2856400,2
Colin Grant,51.9464129,-0.2791646,North Hertfordshire,United Kingdom,877106,1
Colin Powell,40.7127281,-74.0060152,New York,United States,1485801,1
Conrad Wolfram,51.7520131,-1.2578499,Oxford,United Kingdom,1499219,1
Courtney E. Martin,38.8339578,-104.825348,Colorado Springs,United States,1179327,2
Craig Venter,40.7596198,-111.886797,Salt Lake City,United States,884051,3
Cristina Domenech,36.7213028,-4.4216366,Málaga,Spain,687808,1
Cynthia Breazeal,35.0841034,-106.650985,Albuquerque,United States,1064574,1
Cynthia Kenyon,41.8755616,-87.6244212,Chicago,United States,847439,1
Dame Ellen MacArthur,53.0834695,-1.5042939,Amber Valley,United Kingdom,1566602,1
Dame Stephanie Shirley,51.5142273,7.4652789,Dortmund,Germany,1919991,1
Dan Ariely,40.7127281,-74.0060152,New York,United States,3147546,5
Dan Barber,40.7127281,-74.0060152,New York,United States,1634356,2
Dan Bricklin,39.9527237,-75.1635262,Philadelphia,United States,992523,1
Dan Buettner,44.9497487,-93.0931028,Saint Paul,United States,3157446,1
Dan Dennett,42.3554334,-71.060511,Boston,United States,2303440,4
Dan Gilbert,42.3315509,-83.0466403,Detroit,United States,7265484,3
Dan Meyer,43.2560802,-79.8728583,Hamilton,Canada,2465179,1
Dan Pallotta,42.4250964,-71.066163,Malden,United States,3047718,2
Daniel Goleman,37.9577016,-121.2907796,Stockton,United States,1604402,1
Daniel H. Cohen,30.4494155,-91.1869659,Baton Rouge,United States,1423637,1
Daniel Kahneman,32.0852997,34.7818064,Tel Aviv-Yafo,Israel,3841631,1
Daniel Levitin,37.7790262,-122.419906,San Francisco,United States,9163813,1
Daniel Libeskind,51.7687323,19.4569911,Łódź,Poland,784642,1
Daniel Pauly,48.8588897,2.3200410217200766,Paris,France,224768,1
Daniel Suarez,42.3875968,-71.0994968,Somerville,United States,1908577,1
Daniel Tammet,51.5402677,0.0793235,London,United Kingdom,1751030,1
Danielle Feinberg,40.0149856,-105.270545,Boulder,United States,2617414,1
Danielle de Niese,-37.8142454,144.9631732,Melbourne,Australia,787092,1
Danny Dorling,51.7520131,-1.2578499,Oxford,United Kingdom,1384978,1
Danny Hillis,39.2908816,-76.610759,Baltimore,United States,755621,3
Daphne Koller,31.7788242,35.2257626,Jerusalem,Israel,2302206,1
Daria van den Bercken,52.0907006,5.1215634,Utrecht,Netherlands,903111,1
Dave Brain,52.0553813,-2.7151735,Hereford,United Kingdom,1311426,1
Dave Eggers,42.3554334,-71.060511,Boston,United States,1357888,1
Dave Isay,41.3082138,-72.9250518,New Haven,United States,1839891,1
David Binder,34.0536909,-118.242766,Los Angeles,United States,674288,1
David Blaine,40.7127281,-74.0060152,New York,United States,15601385,1
David Brooks,43.6534817,-79.3839347,Old Toronto,Canada,1719650,2
David Cameron,51.5232789,-0.155596,London,United Kingdom,656762,1
David Carson,41.9009603,12.464392449999998,Rome,Italy,774492,1
David Christian,26.1223084,-80.1433786,Fort Lauderdale,United States,7481004,1
David Deutsch,32.799313,34.989571715728204,Haifa,Israel,1017899,2
David Eagleman,35.0841034,-106.650985,Albuquerque,United States,1738331,1
David Epstein,40.7127281,-74.0060152,New York,United States,2824676,1
David Gallo,-35.2975906,149.1012676,Canberra,Australia,5066797,3
David Griffin,53.2593422,-1.9100768,High Peak,United Kingdom,1056435,1
David Gruber,49.8349139,18.2820084,Ostrava,Czech Republic,1853424,1
David Hoffman,29.4246002,-98.4951405,San Antonio,United States,616341,2
David Keith,55.861155,-4.2501687,Glasgow,United Kingdom,876658,1
David Kelley,44.5520105,-69.6317121,Waterville,United States,2584802,2
David Lang,34.0536909,-118.242766,Los Angeles,United States,1225960,1
David Logan,41.8755616,-87.6244212,Chicago,United States,1404586,1
David Macaulay,52.802742,-1.629917,East Staffordshire,United Kingdom,700273,1
David Merrill,42.6511674,-73.754968,City of Albany,United States,1765153,1
David Miliband,51.5074456,-0.1277653,City of Westminster,United Kingdom,1088768,1
David Perry,50.362174,8.6428355,Ober-Mörlen,Germany,1084634,1
David Pizarro,-33.0458456,-71.6196749,Valparaíso,Chile,692434,1
David Puttnam,51.6281547,-0.123596,London,United Kingdom,871453,1
David Rothkopf,40.1117174,-88.207301,Urbana,United States,1215662,1
David Steindl-Rast,48.2083537,16.3725042,Vienna,Austria,5893321,1
David Whyte,51.5074456,-0.1277653,City of Westminster,United Kingdom,643011,1
Dawn Landes,38.2542376,-85.759407,Louisville,United States,1160841,1
Dean Ornish,32.7762719,-96.7968559,Dallas,United States,1598126,3
Deb Roy,49.8955367,-97.1384584,Winnipeg,Canada,2475423,1
Deborah Lipstadt,40.7127281,-74.0060152,New York,United States,918385,1
Debra Jarvis,52.6362,-1.1331969,Leicester,United Kingdom,970703,1
Deepika Kurup,42.7656251,-71.4677032,Nashua,United States,958917,1
Deeyah Khan,59.9133301,10.7389701,Oslo,Norway,1195885,1
Denis Dutton,34.0536909,-118.242766,Los Angeles,United States,2012387,1
Dennis Hong,34.0536909,-118.242766,Los Angeles,United States,1313001,2
Devdutt Pattanaik,19.0785451,72.878176,Mumbai,India,1683308,1
Diana Nyad,40.7127281,-74.0060152,New York,United States,2579788,2
Diane Benscoter,40.7127281,-74.0060152,New York,United States,1076279,1
Diane J. Savino,40.7135078,-73.8283132,New York,United States,292395,1
Diane Kelly,53.2293545,-0.5404819,Lincoln,United Kingdom,3886045,1
Dianna Cohen,34.0536909,-118.242766,Los Angeles,United States,688861,1
Didier Sornette,48.8588897,2.3200410217200766,Paris,France,1361404,1
Don Tapscott,43.6534817,-79.3839347,Old Toronto,Canada,1559787,2
Donald Hoffman,29.4246002,-98.4951405,San Antonio,United States,2471075,1
Donald Sadoway,43.6534817,-79.3839347,Old Toronto,Canada,1803069,1
Dong Woo Jang,37.5941315,127.1297917,Guri-si,South Korea,2290464,1
Doris Kearns Goodwin,40.7127281,-74.0060152,New York,United States,522550,1
Dorothy Roberts,41.8755616,-87.6244212,Chicago,United States,1008812,1
Douglas Adams,52.2055314,0.1186637,Cambridge,United Kingdom,473220,1
Drew Curtis,38.0464066,-84.4970393,Lexington,United States,1061687,1
Dustin Yellin,34.0536909,-118.242766,Los Angeles,United States,1671043,1
E.O. Wilson,33.5206824,-86.8024326,Birmingham,United States,1196848,2
Ed Boyden,33.0136764,-96.6925096,Plano,United States,1095839,2
Ed Ulbrich,30.2711286,-97.7436995,Austin,United States,907147,1
Eddi Reader,55.861155,-4.2501687,Glasgow,United Kingdom,471011,2
Edi Rama,41.3281482,19.8184435,Tirana,Albania,595537,1
Eduardo Briceño,9.3148173,-70.6081655,Valera,Venezuela,2031509,1
Eduardo Paes,-6.07982,-49.8921071,Parauapebas,Brazil,834897,1
Eduardo Sáenz de Cabezón,42.4661196,-2.4396676,Logroño,Spain,1610293,1
Edward Burtynsky,43.1579812,-79.2441003,St. Catharines,Canada,727624,2
Edward Snowden,36.2956836,-76.2247697,Elizabeth City,United States,4040280,1
Edwidge Danticat,18.547327,-72.3395928,Port-au-Prince,Haiti,50443,1
Eleni Gabre-Madhin,9.0358287,38.7524127,Addis Ababa,Ethiopia,562457,1
Eli Beer,31.7788242,35.2257626,Jerusalem,Israel,1062701,1
Elif Shafak,48.584614,7.7507127,Strasbourg,France,1763449,1
Elizabeth Gilbert,41.5538091,-73.0438362,Waterbury,United States,8399708,2
Elizabeth Lindsey,21.48343645,-158.03648372697478,Waipahu,United States,439180,1
Elizabeth Loftus,34.0536909,-118.242766,Los Angeles,United States,3338820,1
Ellen 't Hoen,50.8775239,5.981506585454879,Heerlen,Netherlands,389194,1
Elon Musk,-25.7459277,28.1879101,Pretoria,South Africa,5115125,2
Elyn Saks,25.7741728,-80.19362,Miami,United States,3247799,1
Emiliano Salinas,19.4326296,-99.1331785,Mexico City,Mexico,525446,1
Emily Levine,36.1622767,-86.7742984,Nashville-Davidson,United States,2049904,1
Emily Oster,41.3082138,-72.9250518,New Haven,United States,854967,1
Enric Sala,41.9793006,2.8199439,Girona,Spain,316507,1
Enrique Peñalosa,38.8950368,-77.0365427,Washington D.C,United States,871452,1
Eric Lewis,39.9448402,-75.1198911,Camden,United States,544342,2
Eric Liu,53.5462055,-113.491241,Edmonton,Canada,1295838,2
Eric Topol,40.7135078,-73.8283132,New York,United States,710710,1
Eric Whitacre,39.5261206,-119.8126581,Reno,United States,1608579,3
Eric X. Li,31.2323437,121.4691024,Shanghai,China,2449736,1
Erin McKean,35.2272086,-80.8430827,Charlotte,United States,1279346,2
Esta Soler,41.1670412,-73.2048348,Bridgeport,United States,1034678,1
Esther Duflo,48.8588897,2.3200410217200766,Paris,France,876307,1
Esther Perel,51.2211097,4.3997081,Antwerp,Belgium,9371469,2
Ethan Nadelmann,40.7127281,-74.0060152,New York,United States,1593079,1
Ethel,37.7790262,-122.419906,San Francisco,United States,384641,1
Euvin Naidoo,-28.8166236,24.991639,Tokologo Local Municipality,South Africa,335086,1
Eva Zeisel,47.48138955,19.14609412691246,Budapest,Hungary,438972,1
Eve Ensler,40.7127281,-74.0060152,New York,United States,1194995,4
Evgeny Morozov,52.7893039,27.5318168,Salihorsk,Belarus,430276,1
Fabien Cousteau,48.8588897,2.3200410217200766,Paris,France,1215053,1
Fei-Fei Li,39.9057136,116.3912972,Dongcheng District,China,2005189,1
Feisal Abdul Rauf,-0.1665291,35.6736908,Kamara ward,Kenya,433202,1
Francis Collins,38.1495947,-79.072557,Staunton,United States,796884,1
Frank Gehry,43.6534817,-79.3839347,Old Toronto,Canada,790094,2
Frank Warren,52.4796992,-1.9026911,Birmingham,United Kingdom,3055565,1
Frans Lanting,51.9244424,4.47775,Rotterdam,Netherlands,1568263,2
Frans de Waal,51.6889387,5.303116,'s-Hertogenbosch,Netherlands,3578701,1
Franz Freudenthal,-16.4955455,-68.1336229,La Paz,Bolivia,1226441,1
Françoise Mouly,48.8588897,2.3200410217200766,Paris,France,839040,1
Fred Swaniker,5.5571096,-0.2012376,Accra,Ghana,1239635,1
Frederic Kaplan,18.9733536,72.82810491917377,Mumbai,India,1187105,1
Freeman Hrabowski,33.5206824,-86.8024326,Birmingham,United States,911601,1
Gabe Barcia-Colombo,34.0536909,-118.242766,Los Angeles,United States,795097,1
Garik Israelian,40.1777112,44.5126233,Yerevan,Armenia,593547,1
Garrett Lisi,34.0536909,-118.242766,Los Angeles,United States,1491698,1
Garry Kasparov,40.3755885,49.8328009,Baku,Azerbaijan,1079698,1
Gary Greenberg,40.6526006,-73.9497211,New York,United States,1022799,1
Gary Vaynerchuk,53.1449683,29.2281209,Babruysk,Belarus,757791,1
Ge Wang,39.9057136,116.3912972,Dongcheng District,China,1172298,1
Geena Rocero,14.5906346,120.9799964,Manila,Philippines,3133189,1
Geoffrey Canada,40.8506558,-73.8665241,New York,United States,1786965,1
George Monbiot,51.4989948,-0.1991229,London,United Kingdom,887823,1
George Papandreou,44.9497487,-93.0931028,Saint Paul,United States,741720,1
George Smoot,30.2346844,-81.6981513,Jacksonville,United States,1630525,1
George Takei,34.0536909,-118.242766,Los Angeles,United States,2235902,1
Gian Giudice,45.4077172,11.8734455,Padua,Italy,1644420,1
Gill Hicks,-34.9281805,138.5999312,Adelaide,Australia,813426,1
Glenn Greenwald,40.7135078,-73.8283132,New York,United States,1942778,1
Golan Levin,40.7127281,-74.0060152,New York,United States,688727,2
Grace Kim,34.0536909,-118.242766,Los Angeles,United States,1363680,1
Grady Booch,35.2072185,-101.833824,Amarillo,United States,1362265,1
Graham Hill,51.5565973,-0.1784251,London,United Kingdom,2919318,2
Greg Stone,-31.9558933,115.8605855,Perth,Australia,454323,1
Gregory Petsko,38.8950368,-77.0365427,Washington D.C,United States,909508,1
Grégoire Courtine,47.3215806,5.0414701,Dijon,France,926295,1
Guillaume Néry,43.7009358,7.2683912,Nice,France,857839,1
Guy Hoffman,45.4208777,-75.6901106,(Old) Ottawa,Canada,2931366,1
Halla Tómasdóttir,64.145981,-21.9422367,Reykjavik,Iceland,733303,2
Hanna Rosin,30.8124247,34.8594762,Ramat Negev Regional Council,Israel,851862,1
Hans Rosling,59.8586126,17.6387436,Uppsala,Sweden,3063014,9
Harry Baker,51.4634854,0.1480552,London,United Kingdom,1369263,1
Harsha Bhogle,17.360589,78.4740613,Hyderabad,India,567000,1
Hawa Abdi + Deqo Mohamed,2.0349312,45.3419183,Mogadishu,Somalia,348647,1
Hector Ruiz,28.7041725,-100.5148362,Piedras Negras,Mexico,315244,1
Helen Czerski,53.4794892,-2.2451148,Manchester,United Kingdom,656791,1
Henry Markram,-28.8166236,24.991639,Tokologo Local Municipality,South Africa,1180127,1
Herbie Hancock,41.8755616,-87.6244212,Chicago,United States,652315,1
His Holiness Pope Francis,-34.6037,-58.3816,Buenos Aires,Argentina,2679881,1
Hod Lipson,32.799313,34.989571715728204,Haifa,Israel,1212346,1
Holly Morris,41.8755616,-87.6244212,Chicago,United States,1108528,1
Honor Harger,-45.8740984,170.5035755,Dunedin,New Zealand,909194,1
Howard Rheingold,33.4484367,-112.074141,Phoenix,United States,931001,1
Hugh Evans,-37.8142454,144.9631732,Melbourne,Australia,1360404,1
Hugh Herr,40.08067,-76.2411283,East Lampeter Township,United States,7520736,1
Ian Bremmer,51.4875167,-0.1687007,London,United Kingdom,851675,1
Ilona Szabó de Carvalho,-22.30616605,-42.4934183305119,New Fribourg,Brazil,1135382,1
Imogen Heap,51.5746268,0.1822306,London,United Kingdom,883282,1
Inara George,39.39645905,-76.61481481790992,Towson,United States,217851,1
Ingrid Betancourt,4.6529539,-74.0835643,Bogota,Colombia,526794,1
Iqbal Quadir,23.1665256,89.2094419,Jashore,Bangladesh,503517,1
Irwin Redlener,40.7127281,-74.0060152,New York,United States,657688,1
Isaac Lidsky,25.7741728,-80.19362,Miami,United States,2561564,1
Isaac Mizrahi,40.65080065,-73.95635839526017,New York,United States,900005,1
Isabel Allende,-12.0621065,-77.0365256,Lima Metropolitan Area,Peru,3494530,2
Isabel Behncke,-33.4377756,-70.6504502,Santiago,Chile,710619,1
Ivan Coyote,60.721571,-135.054932,Whitehorse,Canada,1546530,1
Ivan Krastev,42.6817633,26.3153528,Sliven,Bulgaria,640604,1
J.D. Vance,39.516644,-84.4041725,Middletown,United States,1077686,1
J.J. Abrams,40.7127281,-74.0060152,New York,United States,3519656,1
JP Rangaswami,51.59682715,-0.3373046180437286,London,United Kingdom,655406,1
JR,35.1319,128.7103,Changwon-si,South Korea,1877347,2
Jack Conte,37.7790262,-122.419906,San Francisco,United States,734095,1
Jackie Tabick,53.3493795,-6.2605593,Dublin,Ireland,176245,1
Jackson Browne,49.4093582,8.694724,Heidelberg,Germany,656851,1
Jae Rhim Lee,35.1594647,126.8515034,Gwangju,South Korea,1426518,1
Jaime Lerner,-25.4295963,-49.2712724,Curitiba,Brazil,596961,1
Jake Barton,40.6526006,-73.9497211,New York,United States,780039,1
Jake Wood,40.6639916,-74.2107006,Elizabeth,United States,485501,1
James A. White Sr.,29.7589382,-95.3676974,Houston,United States,1237938,1
James Flynn,38.8950368,-77.0365427,Washington D.C,United States,2991225,1
James Forbes,45.4208777,-75.6901106,(Old) Ottawa,Canada,204410,1
James Green,42.3554334,-71.060511,Boston,United States,1465749,1
James Howard Kunstler,40.7127281,-74.0060152,New York,United States,1683456,1
James Nachtwey,43.0481221,-76.1474244,City of Syracuse,United States,841943,2
James Randi,43.6534817,-79.3839347,Old Toronto,Canada,2611707,1
James Stavridis,26.715364,-80.0532942,West Palm Beach,United States,721266,1
James Surowiecki,41.5381535,-72.8070435,Meriden,United States,429084,1
James Watson,41.8755616,-87.6244212,Chicago,United States,1520908,1
Jamie Bartlett,51.5074456,-0.1277653,City of Westminster,United Kingdom,2061368,1
Jamie Heywood,51.4893335,-0.1440550845276872,London,United Kingdom,528451,1
Jamie Oliver,51.9727613,0.1397524062162138,Uttlesford,United Kingdom,7638978,1
Jamila Raqib,14.4859561,121.0397812,Parañaque,Philippines,878864,1
Jane Chen,25.0375198,121.5636796,Taipei,Taiwan,702550,1
Jane Fonda,34.0536909,-118.242766,Los Angeles,United States,2370111,1
Jane Fonda and Lily Tomlin,42.3315509,-83.0466403,Detroit,United States,2269844,1
Jane Goodall,51.4893335,-0.1440550845276872,London,United Kingdom,1109574,2
Jane McGonigal,39.9527237,-75.1635262,Philadelphia,United States,3956424,3
Janet Echelman,27.9477595,-82.458444,Tampa,United States,1832930,1
Janet Iwasa,39.1670396,-86.5342881,Bloomington,United States,837568,1
Janette Sadik-Khan,37.7790262,-122.419906,San Francisco,United States,925046,1
Janine Shepherd,-33.6876398,151.0267199,Sydney,Australia,1367089,1
Jared Diamond,42.3554334,-71.060511,Boston,United States,1280044,2
Jarreth Merz,47.3744489,8.5410422,Zurich,Switzerland,399332,1
Jarrett J. Krosoczka,42.2625621,-71.8018877,Worcester,United States,1070019,2
Jason Pontin,51.5074456,-0.1277653,City of Westminster,United Kingdom,1507409,1
Jay Walker,34.0536909,-118.242766,Los Angeles,United States,2386449,2
Jean-Paul Mari,36.7753606,3.0601882,Algiers,Algeria,762041,1
Jeff Bezos,35.0841034,-106.650985,Albuquerque,United States,707182,2
Jeff Han,42.3315509,-83.0466403,Detroit,United States,4531020,1
Jeff Skoll,45.5031824,-73.5698065,Montreal,Canada,727247,1
Jeffrey Brown,42.3554334,-71.060511,Boston,United States,1049652,1
Jehane Noujaim,38.8950368,-77.0365427,Washington D.C,United States,387877,1
Jennifer 8. Lee,40.7127281,-74.0060152,New York,United States,1285775,1
Jennifer Doudna,38.8950368,-77.0365427,Washington D.C,United States,1936760,1
Jennifer Granholm,49.2608724,-123.113952,Vancouver,Canada,745252,1
Jennifer Lin,29.7589382,-95.3676974,Houston,United States,1628912,1
Jer Thorp,49.2608724,-123.113952,Vancouver,Canada,220716,1
Jeremy Gilley,50.9025349,-1.404189,Southampton,United Kingdom,842057,1
Jeremy Howard,51.5074456,-0.1277653,City of Westminster,United Kingdom,2183690,1
Jeremy Rifkin,39.7392364,-104.984862,Denver,United States,544047,1
Jessa Gamble,51.7520131,-1.2578499,Oxford,United Kingdom,2244295,1
Jill Bolte Taylor,38.2542376,-85.759407,Louisville,United States,21190883,1
Jill Heinerth,43.6534817,-79.3839347,Old Toronto,Canada,1468644,1
Jill Sobule,39.7392364,-104.984862,Denver,United States,591379,1
Jim Holt,40.7127281,-74.0060152,New York,United States,2890269,1
Jim Simons,40.4416941,-79.9900861,Pittsburgh,United States,1705702,1
Jim Yong Kim,37.5666791,126.9782914,Seoul,South Korea,1342356,1
Jimmy Carter,52.4796992,-1.9026911,Birmingham,United Kingdom,1388335,1
Jimmy Lin,25.0375198,121.5636796,Taipei,Taiwan,1005506,1
Jimmy Nelson,41.8755616,-87.6244212,Chicago,United States,1339843,1
Jimmy Wales,34.729847,-86.5859011,Huntsville,United States,1106561,1
Jocelyne Bloch,46.2047169,6.1423106290939335,Geneva,Switzerland,2152900,1
Jody Williams,-33.928992,18.417396,Cape Town,South Africa,667218,1
Joe Gebbia,33.7489924,-84.3902644,Atlanta,United States,2019969,1
Joe Smith,40.7127281,-74.0060152,New York,United States,3270359,1
Joel Burns,32.753177,-97.3327459,Fort Worth,United States,278672,1
Joel Levine,40.6526006,-73.9497211,New York,United States,622046,1
Joey Alexander,-8.6524973,115.2191175,Denpasar,Indonesia,2155099,1
Johann Hari,55.861155,-4.2501687,Glasgow,United Kingdom,7841509,1
John Bohannon,29.7589382,-95.3676974,Houston,United States,485285,1
John Delaney,52.2609997,-7.1119081,Waterford,Ireland,332099,1
John Doerr,38.6280278,-90.1910154,St. Louis,United States,805111,1
John Hardy,51.4893335,-0.1440550845276872,London,United Kingdom,960523,1
John Hockenberry,39.7589478,-84.1916069,Dayton,United States,737230,1
John Koenig,47.2455013,-122.438329,Tacoma,United States,1173364,1
John Legend,39.7990175,-89.6439575,Springfield,United States,1538107,1
John Lloyd,14.5436995,120.9946503,Pasay,Philippines,747782,2
John Maeda,47.6038321,-122.330062,Seattle,United States,834502,3
John McWhorter,39.9527237,-75.1635262,Philadelphia,United States,2167833,2
John Searle,39.7392364,-104.984862,Denver,United States,1332731,1
Joi Ito,35.021041,135.7556075,Kyoto,Japan,2053453,1
Jok Church,41.083064,-81.518485,Akron,United States,727487,1
Jon Ronson,51.4816546,-3.1791934,Cardiff,United Kingdom,6385279,2
Jonas Gahr Støre,59.9133301,10.7389701,Oslo,Norway,338346,1
Jonathan Haidt,40.7127281,-74.0060152,New York,United States,1493985,4
Jonathan Harris,40.7127281,-74.0060152,New York,United States,952389,2
Jonathan Klein,-26.205,28.049722,Johannesburg,South Africa,1209663,1
Jonathan Zittrain,40.4416941,-79.9900861,Pittsburgh,United States,717483,1
Jorge Drexler,-34.9058916,-56.1913095,Montevideo,Uruguay,626886,1
Jorge Ramos,-34.9058916,-56.1913095,Montevideo,Uruguay,383080,1
Jorge Soto,-17.0568696,-64.9912286,Municipio Puerto Villarroel,Bolivia,1213251,1
Joseph Redmon,-36.852095,174.7631803,Auckland,New Zealand,1164777,1
Josh Luber,39.9527237,-75.1635262,Philadelphia,United States,1799799,1
Joshua Foer,38.8950368,-77.0365427,Washington D.C,United States,4754217,1
Joshua Prager,40.7127281,-74.0060152,New York,United States,1436084,2
Joshua Smith,47.6038321,-122.330062,Seattle,United States,893022,1
José Antonio Abreu,9.3148173,-70.6081655,Valera,Venezuela,942604,1
Joy Buolamwini,53.5462055,-113.491241,Edmonton,Canada,869310,1
Joy Sun,40.5834557,-74.1496048,New York,United States,1218131,1
Jude Kelly,53.4071991,-2.99168,Liverpool,United Kingdom,1086882,1
Julia Bacha,-22.9110137,-43.2093727,Rio de Janeiro,Brazil,776444,2
Julia Galef,38.9959461,-77.0276231,Silver Spring,United States,3210972,1
Julia Sweeney,47.6571934,-117.42351,Spokane,United States,3566043,2
Julian Assange,-19.2569391,146.8239537,Townsville,Australia,2278271,1
Julian Baggini,51.0791335,1.1794073,Folkestone and Hythe District,United Kingdom,1005287,1
Julian Treasure,37.7790262,-122.419906,San Francisco,United States,6185531,5
Jun Wang,31.2312707,121.4700152,Shanghai,China,534824,1
Juno Mac,44.648618,-63.5859487,Halifax,Canada,1811102,1
Kailash Satyarthi,23.5208128,77.8063184,Vidisha,India,1189513,1
Kaki King,33.7489924,-84.3902644,Atlanta,United States,1209792,2
Karen Bass,34.0536909,-118.242766,Los Angeles,United States,737937,1
Karen Thompson Walker,32.7174202,-117.1627728,San Diego,United States,1951290,1
Karen Tse,41.4996574,-81.6936772,Cleveland,United States,532416,1
Kary Mullis,35.2590371,-77.6484879,Kinston,United States,578651,2
Kavita Ramdas,28.6273928,77.1716954,New Delhi,India,473956,1
Kees Moeliker,51.9244424,4.47775,Rotterdam,Netherlands,1306390,1
Keith Barry,52.2609997,-7.1119081,Waterford,Ireland,13327101,1
Kelly McGonigal,39.9527237,-75.1635262,Philadelphia,United States,14566463,1
Ken Goldberg,7.3777462,3.8972497,Ibadan,Nigeria,359381,1
Ken Jennings,40.7215682,-74.047455,Jersey City,United States,1135004,1
Ken Robinson,53.4071991,-2.99168,Liverpool,United Kingdom,15751570,4
Kenichi Ebina,40.9921996,-75.9078749,Hazle Township,United States,1720579,1
Kent Larson,40.7127281,-74.0060152,New York,United States,1052980,1
Keren Elazari,32.0852997,34.7818064,Tel Aviv-Yafo,Israel,2120292,1
Kevin Briggs,-45.8740984,170.5035755,Dunedin,New Zealand,2500023,1
Kevin Rudd,-26.6257326,152.959953,Sunshine Coast Regional,Australia,1543588,1
Khalida Brohi,25.3960,68.3578,Hyderabad,Pakistan,1149837,1
Kid President,40.7127281,-74.0060152,New York,United States,828203,1
Krista Donaldson,44.648618,-63.5859487,Halifax,Canada,954702,1
Kwabena Boahen,5.5571096,-0.2012376,Accra,Ghana,580298,1
Kwame Anthony Appiah,51.4893335,-0.1440550845276872,London,United Kingdom,1569284,1
LZ Granderson,42.3315509,-83.0466403,Detroit,United States,1466095,1
Laolu Senbanjo,8.4963657,4.5480484,Ilorin,Nigeria,636463,1
Larry Brilliant,42.3315509,-83.0466403,Detroit,United States,555787,2
Larry Page,42.7320307,-84.4721678,East Lansing,United States,2293465,1
Larry Smith,35.2272086,-80.8430827,Charlotte,United States,5917201,1
Latif Nasser,43.5896231,-79.6443879,Mississauga,Canada,1901843,2
Laura Boushnak,-0.1665291,35.6736908,Kamara ward,Kenya,732064,2
Laura Robinson,44.3054151,-76.4283781,Kingston,Canada,1487112,1
Laurie Garrett,34.0536909,-118.242766,Los Angeles,United States,425429,1
Laurie Santos,41.6362152,-70.934205,New Bedford,United States,1236817,1
Lawrence Lessig,44.0806041,-103.228023,Rapid City,United States,1206091,4
Leana Wen,31.2323437,121.4691024,Shanghai,China,1685861,1
Lee Cronin,53.3493795,-6.2605593,Dublin,Ireland,840715,2
Lee Smolin,40.7127281,-74.0060152,New York,United States,258922,1
Lemon Andersen,40.6526006,-73.9497211,New York,United States,1120276,1
Leonard Susskind,40.7127281,-74.0060152,New York,United States,846544,1
Leslie Morgan Steiner,38.8950368,-77.0365427,Washington D.C,United States,3846779,1
Leslie T. Chang,40.7127281,-74.0060152,New York,United States,1362071,1
Lewis Pugh,50.3714122,-4.1424451,Plymouth,United Kingdom,859331,2
Lian Pin Koh,1.357107,103.8194992,Singapore,Singapore,599368,1
Lidia Yuknavitch,37.7790262,-122.419906,San Francisco,United States,2190919,1
Linda Liukas,60.1674881,24.9427473,Helsinki,Finland,1617536,1
Linus Torvalds,60.1674881,24.9427473,Helsinki,Finland,2399273,1
Lisa Bu,52.5170365,13.3888599,Berlin,Germany,3158067,1
Lisa Kristine,37.7790262,-122.419906,San Francisco,United States,2586606,1
Liu Bolin,36.398987,118.5055691,Linqu County,China,1304597,1
Liza Donnelly,38.8950368,-77.0365427,Washington D.C,United States,1300622,1
Lord Nicholas Stern,51.4893335,-0.1440550845276872,London,United Kingdom,773801,1
Louie Schwartzberg,40.6526006,-73.9497211,New York,United States,4186569,3
Louise Leakey,-1.30261485,36.82884201813725,Nairobi,Kenya,656400,1
Luca Turin,33.88922645,35.50255852895232,Basta Tahta,Lebanon,487630,1
Lucianne Walkowicz,40.7127281,-74.0060152,New York,United States,1086361,3
Lucy McRae,51.5074456,-0.1277653,City of Westminster,United Kingdom,1565486,1
Luis von Ahn,14.6424667,-90.5131361,Guatemala City,Guatemala,1482664,1
Maajid Nawaz,51.5388241,0.7128137,Southend-on-Sea,United Kingdom,703559,1
Madeleine Albright,50.0874654,14.4212535,Prague,Czech Republic,729867,1
Mae Jemison,34.6060203,-86.9838165,Decatur,United States,744257,1
Maira Kalman,32.0852997,34.7818064,Tel Aviv-Yafo,Israel,672254,1
Majora Carter,40.7127281,-74.0060152,New York,United States,1200171,2
Malcolm McLaren,51.5578698,-0.0822482,London,United Kingdom,251313,1
Mallika Sarabhai,23.0216238,72.5797068,Ahmedabad,India,481834,1
Manuel Lima,37.80855645,-25.47313739124529,Ribeira Grande,Portugal,1710873,1
Marc Koska,50.7446732,-1.85795768008541,Bournemouth,United Kingdom,629018,1
Marcel Dicke,51.7689546,4.686789054617023,Dordrecht,Netherlands,1393541,1
Marcin Jakubowski,52.4082663,16.9335199,Poznań,Poland,1479352,1
Marco Tempest,47.3744489,8.5410422,Zurich,Switzerland,2226156,6
Marcus du Sautoy,51.4893335,-0.1440550845276872,London,United Kingdom,1010292,1
Mariana Mazzucato,41.8933203,12.4829321,Rome,Italy,816687,1
Mark Kendall,44.9772995,-93.2654692,Minneapolis,United States,1004872,1
Mark Pagel,47.6038321,-122.330062,Seattle,United States,1421357,1
Mark Plotkin,41.7728699,-88.1479278,Naperville,United States,1454878,1
Mark Ronson,51.5109995,-0.2055267,London,United Kingdom,3061003,1
Mark Roth,55.8712267,26.5159337,Daugavpils,Latvia,708408,1
Mark Shaw,40.7127281,-74.0060152,New York,United States,1539504,1
Markus Fischer,47.3744489,8.5410422,Zurich,Switzerland,6264902,1
Marla Spivak,39.7392364,-104.984862,Denver,United States,2436104,1
Marlene Zuk,39.9527237,-75.1635262,Philadelphia,United States,1441565,1
Martin Pistorius,-26.205,28.049722,Johannesburg,South Africa,2094497,1
Martin Rees,53.9590555,-1.0815361,York,United Kingdom,1670236,2
Martin Reeves,52.4796992,-1.9026911,Birmingham,United Kingdom,1677142,1
Martin Seligman,42.6511674,-73.754968,City of Albany,United States,4190393,1
Martin Villeneuve,46.3432325,-72.5428485,Trois-Rivières,Canada,948840,1
Martine Rothblatt,41.8755616,-87.6244212,Chicago,United States,1304737,1
Marvin Minsky,40.7127281,-74.0060152,New York,United States,513090,1
Marwa Al-Sabouni,34.725541449999994,36.70738875101476,Homs,Syria,888896,1
Mary Norris,41.4996574,-81.6936772,Cleveland,United States,1060918,1
Matt Kenyon,-33.465,151.4344444,Gosford,Australia,829988,1
Matt Mills,33.7690164,-118.191604,Long Beach,United States,2623011,1
Matthew Carter,51.5074456,-0.1277653,City of Westminster,United Kingdom,1112914,1
Matthew Williams,34.0536909,-118.242766,Los Angeles,United States,1074684,1
Maurice Conti,45.0677551,7.6824892,Turin,Italy,2759051,1
Maurizio Seracini,43.7698712,11.2555757,Florence,Italy,725173,1
Maya Beiser,32.6382136,35.446739,Emek Izrael Regional Council,Israel,929077,1
Maya Penn,33.7489924,-84.3902644,Atlanta,United States,1458485,1
Maz Jobrani,35.6892523,51.3896004,Tehran,Iran,6375747,2
Mechai Viravaidya,13.7456236,100.5342199,Bangkok,Thailand,1059098,1
Megan Phelps-Roper,39.049011,-95.677556,Topeka,United States,4503368,1
Megan Washington,-9.4743301,147.1599504,Port Moresby,Papua New Guinea,1669149,1
Melinda Gates,32.7762719,-96.7968559,Dallas,United States,1165783,2
Melissa Walker,53.5462055,-113.491241,Edmonton,Canada,827933,1
Mellody Hobson,41.8755616,-87.6244212,Chicago,United States,2200326,1
Memory Banda,-31.5639055,28.7933032,Mthatha,South Africa,1241223,1
Meron Gribetz,30.8124247,34.8594762,Ramat Negev Regional Council,Israel,1575381,1
Michael Anti,32.0584,118.7965,Nanjing, China,1423930,1
Michael Bierut,41.4996574,-81.6936772,Cleveland,United States,1323235,1
Michael Botticelli,42.3554334,-71.060511,Boston,United States,1247655,1
Michael Murphy,34.0536909,-118.242766,Los Angeles,United States,1162011,1
Michael Nielsen,55.6433478,12.0819247,Roskilde,Denmark,138812,1
Michael Patrick Lynch,50.8214626,-0.1400561,Brighton,United Kingdom,1264166,1
Michael Rubinstein,40.7127281,-74.0060152,New York,United States,1948196,1
Michael Sandel,44.9772995,-93.2654692,Minneapolis,United States,1079617,3
Michael Shermer,34.0536909,-118.242766,Los Angeles,United States,3896798,2
Michael Stevens,38.8950368,-77.0365427,Washington D.C,United States,195899,1
Michael Tilson Thomas,34.0536909,-118.242766,Los Angeles,United States,1281099,1
Michelle Obama,41.8755616,-87.6244212,Chicago,United States,1026589,1
Mick Cornett,35.4729886,-97.5170536,Oklahoma City,United States,1514912,1
Miguel Nicolelis,-23.5506507,-46.6333824,São Paulo,Brazil,1267146,2
Mike Matas,47.6038321,-122.330062,Seattle,United States,1507048,1
Mike deGruy,30.6913462,-88.0437509,Mobile,United States,940841,1
Milton Glaser,40.8466508,-73.8785937,New York,United States,382985,1
Mina Bissell,35.6892523,51.3896004,Tehran,Iran,990712,1
Misha Glenny,51.5074456,-0.1277653,City of Westminster,United Kingdom,1078141,2
Mitchell Besser,35.1460249,-90.0517638,Memphis,United States,235221,1
Miwa Matreyek,47.0451022,-122.8950075,Olympia,United States,829399,1
Mohamed Ali,2.0349312,45.3419183,Mogadishu,Somalia,1017789,1
Molly Crockett,39.9527237,-75.1635262,Philadelphia,United States,1200277,1
Monica Byrne,40.2663107,-76.8861122,Harrisburg,United States,876021,1
Monica Lewinsky,37.7790262,-122.419906,San Francisco,United States,11443190,1
Monika Bulaj,52.2337172,21.071432235636493,Warsaw,Poland,550740,1
Morgan Spurlock,39.2667309,-81.5620755,Parkersburg,United States,2049103,1
Morley,-37.8142454,144.9631732,Melbourne,Australia,310126,1
Moshe Safdie,32.799313,34.989571715728204,Haifa,Israel,1073093,2
Mundano,-23.5506507,-46.6333824,São Paulo,Brazil,966645,1
Murray Gell-Mann,40.7896239,-73.9598939,New York,United States,983494,2
Nadia Al-Sakkaf,-24.8400117,-65.4183594,Salta,Argentina,498409,1
Nadine Burke Harris,49.2608724,-123.113952,Vancouver,Canada,3104326,1
Nagin Cox,12.9767936,77.590082,Bengaluru,India,1374091,1
Nandan Nilekani,12.9767936,77.590082,Bengaluru,India,792495,1
Naomi Klein,45.5031824,-73.5698065,Montreal,Canada,900395,1
Naomi Oreskes,40.7127281,-74.0060152,New York,United States,1091065,1
Natalie Jeremijenko,-21.141956,149.1865149,Mackay,Australia,414028,1
Natalie MacMaster,48.477473,-81.330414,Timmins,Canada,891341,2
Natalie Merchant,42.0965167,-79.2380322,Jamestown,United States,860139,1
Natalie Warne,32.5135356,-93.7477839,Shreveport,United States,569814,1
Natasha Tsakos,46.2047169,6.1423106290939335,Geneva,Switzerland,389813,1
Nate Silver,42.7320307,-84.4721678,East Lansing,United States,427878,1
Nathan Myhrvold,47.6038321,-122.330062,Seattle,United States,895016,3
Nathan Wolfe,42.3315509,-83.0466403,Detroit,United States,959136,2
Nathaniel Kahn,39.9527237,-75.1635262,Philadelphia,United States,338831,1
Navi Radjou,10.91564885,79.80694879844232,Puducherry,India,1601624,1
Negin Farsad,41.3082138,-72.9250518,New Haven,United States,1225718,1
Neil Burgess,42.3554334,-71.060511,Boston,United States,1196436,1
Neil Gershenfeld,40.004128,-75.28828930301155,Lower Merion Township,United States,691814,1
Neil Harbisson,41.5398348,2.4448926,Mataró,Spain,2468887,1
Neil MacGregor,55.861155,-4.2501687,Glasgow,United Kingdom,983994,1
Neil Pasricha,43.8975558,-78.8635324,Oshawa,Canada,2859644,1
Neil Turok,-26.205,28.049722,Johannesburg,South Africa,473165,1
Nellie McKay,40.7896239,-73.9598939,New York,United States,791393,3
Neri Oxman,32.8191218,34.9983856,Haifa,Israel,1607427,1
Niall Ferguson,55.861155,-4.2501687,Glasgow,United Kingdom,1564173,1
Nicholas Christakis,41.3082138,-72.9250518,New Haven,United States,946845,2
Nicholas Negroponte,40.7127281,-74.0060152,New York,United States,794381,5
Nick Bostrom,56.0442098,12.703706,Helsingborg,Sweden,1797422,2
Nick Hanauer,40.7127281,-74.0060152,New York,United States,1623637,1
Nick Veasey,51.5074456,-0.1277653,City of Westminster,United Kingdom,1780196,1
Nina Fedoroff,41.4996574,-81.6936772,Cleveland,United States,841955,1
Nina Tandon,40.7127281,-74.0060152,New York,United States,777077,2
Nizar Ibrahim,52.5170365,13.3888599,Berlin,Germany,931845,1
Noah Feldman,42.3554334,-71.060511,Boston,United States,626968,2
Noah Wilson-Rich,47.6571934,-117.42351,Spokane,United States,687263,1
Noreena Hertz,51.5871881,-0.1648137,London,United Kingdom,880598,1
Noriko Arai,35.6840574,139.7744912,Chuo,Japan,773317,1
Norman Lear,41.3082138,-72.9250518,New Haven,United States,1025698,1
Olafur Eliasson,55.6867243,12.5700724,Copenhagen,Denmark,522578,1
Ole Scheeren,49.0068705,8.4034195,Karlsruhe,Germany,2079266,1
Oliver Sacks,51.4893335,-0.1440550845276872,London,United Kingdom,4233352,1
Paddy Ashdown,28.6138954,77.2090057,New Delhi,India,986648,1
Pamela Meyer,38.8950368,-77.0365427,Washington D.C,United States,16861578,1
Pankaj Ghemawat,26.2967719,73.0351433,Jodhpur,India,813261,1
Paola Antonelli,40.7232643,8.5610074,Sassari,Italy,610986,3
Parag Khanna,26.4609135,80.3217588,Kanpur,India,919310,2
Pardis Sabeti,35.6892523,51.3896004,Tehran,Iran,1169214,1
Parul Sehgal,38.8408718,-77.1144702810449,Alexandria,United States,2158038,1
Patience Mthunzi,-26.2227778,27.89,Soweto,South Africa,1203056,1
Patricia Burchat,50.000678,-86.000977,Unorganized North Cochrane,Canada,1410164,1
Patricia Ryan ,40.7127281,-74.0060152,New York,United States,1624741,1
Patrick Awuah,5.5571096,-0.2012376,Accra,Ghana,1216429,1
Patrick Chappatte,24.8546842,67.0207055,Karachi,Pakistan,759736,1
Paul Bennett,53.7974185,-1.5437941,Leeds,United Kingdom,761930,1
Paul Bloom,45.5031824,-73.5698065,Montreal,Canada,1511249,2
Paul Greenberg,40.7127281,-74.0060152,New York,United States,1488694,1
Paul Lewis,-34.9281805,138.5999312,Adelaide,Australia,148971,1
Paul MacCready,41.3082138,-72.9250518,New Haven,United States,466714,2
Paul Pholeros,-33.8698439,151.2082848,Sydney,Australia,1330614,1
Paul Romer,33.9510011,-118.2062682,South Gate,United States,516887,2
Paul Root Wolpe,32.7884363,-79.9399309,Charleston,United States,1226731,1
Paul Sereno,41.7571701,-88.3147539,Aurora,United States,764982,1
Paul Tudor Jones II,35.1460249,-90.0517638,Memphis,United States,1762082,1
Paula Scher,38.8950368,-77.0365427,Washington D.C,United States,505714,1
Pavan Sukhdev,28.6273928,77.1716954,New Delhi,India,633715,1
Peggy Orenstein,44.9772995,-93.2654692,Minneapolis,United States,1750573,1
Peter Attia,43.6534817,-79.3839347,Old Toronto,Canada,2459753,1
Peter Diamandis,40.8466508,-73.8785937,New York,United States,788711,3
Peter Doolittle,39.7589478,-84.1916069,Dayton,United States,2030203,1
Peter Eigen,48.3668041,10.8986971,Augsburg,Germany,741625,1
Peter Haas,49.5928616,11.0056,Erlangen,Germany,317127,1
Peter Saul,39.2908816,-76.610759,Baltimore,United States,873230,1
Peter Singer,-37.8142454,144.9631732,Melbourne,Australia,1533054,1
Peter van Uhm,51.8474946,5.8637771,Nijmegen,Netherlands,1818344,1
Phil Plait,38.8950368,-77.0365427,Washington D.C,United States,2042272,1
Philip K. Howard,33.7489924,-84.3902644,Atlanta,United States,610454,1
Philip Rosedale,32.7174202,-117.1627728,San Diego,United States,554794,1
Philip Zimbardo,40.7127281,-74.0060152,New York,United States,3204454,3
Philippe Starck,48.8588897,2.3200410217200766,Paris,France,1783740,1
Pico Iyer,51.7520131,-1.2578499,Oxford,United Kingdom,2387338,3
Pranav Mistry,24.1709794,72.4366375,Palanpur,India,16097077,1
Qi Zhang,37.4363704,116.3534091,Decheng District,China,803691,1
Rabbi Lord Jonathan Sacks,51.4893335,-0.1440550845276872,London,United Kingdom,1244502,1
Rachel Sussman,40.6526006,-73.9497211,New York,United States,1424250,1
Raffaello D'Andrea,45.9562503,12.6597197,Pordenone,Italy,6421088,2
Raghava KK,21.6409,69.611,Porbandar,India,810740,3
Rainn Wilson,47.6038321,-122.330062,Seattle,United States,792297,1
Raj Panjabi,6.328034,-10.797788,Monrovia,Liberia,874817,1
Rajesh Rao,51.5264341,-0.2839348,London,United Kingdom,1190085,1
Ramanan Laxminarayan,0.3177137,32.5813539,Kampala,Uganda,956731,1
Ramona Pierson,37.4443293,-122.1598465,Palo Alto,United States,369363,1
Randall Munroe,40.6916081,-75.2099866,Easton,United States,2558702,1
Randy Pausch,39.2908816,-76.610759,Baltimore,United States,564781,1
Ray Dalio,40.7556561,-73.8857755,New York,United States,1070238,1
Ray Kurzweil,40.7127281,-74.0060152,New York,United States,1771474,3
Raymond Wang,49.2608724,-123.113952,Vancouver,Canada,1690995,1
Rebecca MacKinnon,37.8708393,-122.272863,Berkeley,United States,894417,2
Reggie Watts,48.7784485,9.1800132,Stuttgart,Germany,9315931,1
Regina Dugan,40.7127281,-74.0060152,New York,United States,1618434,1
Rhiannon Giddens,36.0726355,-79.7919754,Greensboro,United States,946815,1
Ricardo Semler,-23.5506507,-46.6333824,São Paulo,Brazil,2610440,1
Richard Branson,51.4893335,-0.1440550845276872,London,United Kingdom,1609555,1
Richard Dawkins,-1.30261485,36.82884201813725,Nairobi,Kenya,2526404,3
Richard Feynman,40.7127281,-74.0060152,New York,United States,521974,1
Richard J. Berry,42.498275,-92.3328743,Waterloo,United States,748485,1
Richard Preston,44.694285,-75.486374,City of Ogdensburg,United States,644637,1
Richard Pyle,21.3938252,-157.73386731074743,Kailua,United States,352252,1
Richard Sears,42.3554334,-71.060511,Boston,United States,603657,1
Richard Seymour,-33.928992,18.417396,Cape Town,South Africa,950387,1
Richard St. John,52.66833065,-8.66451062242474,Limerick,Ireland,7251421,2
Rick Warren,37.3361663,-121.890591,San Jose,United States,3095993,1
Rives,34.0536909,-118.242766,Los Angeles,United States,1664776,6
Rob Knight,-45.8740984,170.5035755,Dunedin,New Zealand,1566854,1
Rob Reid,40.7127281,-74.0060152,New York,United States,2598055,1
Robert Ballard,37.6922361,-97.3375448,Wichita,United States,1281570,1
Robert Full,42.7284117,-73.6917878,City of Troy,United States,850730,4
Robert Gordon,40.4416941,-79.9900861,Pittsburgh,United States,1091988,1
Robert Hammond,33.9528472,-84.5496148,Marietta,United States,704205,1
Robert Muggah,43.6534817,-79.3839347,Old Toronto,Canada,906025,1
Robert Neuwirth,41.083064,-81.518485,Akron,United States,713895,2
Robert Palmer,22.350627,114.1849161,Sha Tin District,China,1015683,1
Robert Sapolsky,40.6526006,-73.9497211,New York,United States,865776,2
Robert Swan,41.8755616,-87.6244212,Chicago,United States,972816,1
Robert Thurman,40.7127281,-74.0060152,New York,United States,899203,2
Robert Waldinger,41.2587459,-95.9383758,Omaha,United States,16601927,1
Robert Wright,38.3505995,-81.6332812,Charleston,United States,663091,2
Robin Morgan,51.4214787,-0.2064027,London,United Kingdom,1004539,1
Robin Murphy,30.6913462,-88.0437509,Mobile,United States,983682,1
Rodney Brooks,-34.9281805,138.5999312,Adelaide,Australia,976857,2
Rodney Mullen,29.6519684,-82.3249846,Gainesville,United States,814297,1
Roger Ebert,40.1117174,-88.207301,Urbana,United States,1104345,1
Roger McNamee,42.6511674,-73.754968,City of Albany,United States,287416,1
Roger Stein,47.3744489,8.5410422,Zurich,Switzerland,904210,1
Romulus Whitaker,40.7127281,-74.0060152,New York,United States,397719,1
Rory  Bremner,55.9533456,-3.1883749,City of Edinburgh,United Kingdom,1112000,1
Rory Stewart,51.5185075,-0.1787546,London,United Kingdom,755810,2
Rory Sutherland,-35.2975906,149.1012676,Canberra,Australia,2103906,3
Rose George,53.7414271,-1.7202003766777243,Kirklees,United Kingdom,1527533,2
Ross Lovegrove,51.4816546,-3.1791934,Cardiff,United Kingdom,1074081,1
Roxane Gay,41.2587459,-95.9383758,Omaha,United States,1453205,1
Ruby Wax,42.0470043,-87.6846053,Evanston,United States,2352202,1
Rupal Patel,18.9733536,72.82810491917377,Mumbai,India,853612,1
Russ Altman,40.6526006,-73.9497211,New York,United States,1587090,1
Ryan Merkley,43.447436,-79.666672,Oakville,Canada,695153,1
Sakena Yacoobi,34.3508273,62.2164003,Herat,Afghanistan,1371548,1
Sally Kohn,40.6022059,-75.4712794,Allentown,United States,1510619,2
Sam Harris,34.0536909,-118.242766,Los Angeles,United States,3012999,2
Sam Kass,41.8755616,-87.6244212,Chicago,United States,1345520,1
Sam Richards,42.3315509,-83.0466403,Detroit,United States,1531265,1
Samantha Power,51.4893335,-0.1440550845276872,London,United Kingdom,456095,1
Sandi Toksvig,55.6867243,12.5700724,Copenhagen,Denmark,799891,1
Sandra Aamodt,37.7790262,-122.419906,San Francisco,United States,4102503,1
Sanford Biggers,34.0536909,-118.242766,Los Angeles,United States,987388,1
Sangu Delle,51.5109995,-0.2055267,London,United Kingdom,1208237,2
Sara Ramirez,23.2035785,-106.4208391,Mazatlán,Mexico,804359,1
Sara Seager,43.6534817,-79.3839347,Old Toronto,Canada,1365646,1
Sarah Jones,51.4893335,-0.1440550845276872,London,United Kingdom,1548378,3
Sarah Kay,40.7127281,-74.0060152,New York,United States,5620915,2
Sarah Parcak,44.8016255,-68.7713289,Bangor,United States,927079,3
Sarah-Jayne Blakemore,52.2055314,0.1186637,Cambridge,United Kingdom,2246203,1
Saul Griffith,-33.8698439,151.2082848,Sydney,Australia,536492,2
Scott Fraser,45.4208777,-75.6901106,(Old) Ottawa,Canada,1050633,1
Scott Kim,40.0149856,-105.270545,Boulder,United States,517779,1
Scott McCloud,42.3554334,-71.060511,Boston,United States,1022333,1
Sean Carroll,39.9527237,-75.1635262,Philadelphia,United States,1549458,1
Sebastian Thrun,51.1721629,7.0845893,Solingen,Germany,2442977,1
Sergey Brin + Larry Page,55.7505412,37.6174782,Moscow,Russia,1451846,1
Seth Berkley,40.7127281,-74.0060152,New York,United States,765580,2
Seth Shostak,38.8769326,-77.0893094,Arlington,United States,832407,1
Sethembile Msezane,-28.94369405,30.47038498243574,Umvoti Local Municipality,South Africa,542088,1
Shah Rukh Khan,28.6138954,77.2090057,New Delhi,India,4642478,1
Shane Koyczan,62.4540807,-114.377385,Yellowknife,Canada,5316753,1
Sharmeen Obaid-Chinoy,24.8546842,67.0207055,Karachi,Pakistan,1057238,1
Shashi Tharoor,51.4893335,-0.1440550845276872,London,United Kingdom,1437808,1
Shawn Achor,31.5491899,-97.1474628,Waco,United States,16209727,1
Sheena Iyengar,43.6534817,-79.3839347,Old Toronto,Canada,2700983,2
Sherry Turkle,40.7127281,-74.0060152,New York,United States,4066376,1
Sherwin Nuland,40.7127281,-74.0060152,New York,United States,924760,2
Sheryl Sandberg,38.8950368,-77.0365427,Washington D.C,United States,4782139,2
Sheryl WuDunn,40.7127281,-74.0060152,New York,United States,1049847,1
Shigeru Ban,35.6840574,139.7744912,Chuo,Japan,1573440,1
Shilo Shiv Suleman,12.9767936,77.590082,Bengaluru,India,576918,1
Shimon Schocken,32.0852997,34.7818064,Tel Aviv-Yafo,Israel,761561,2
Shirin Neshat,36.0156291,49.8398161,دهستان دشتابی غربی,Iran,650274,1
Shonda Rhimes,41.8755616,-87.6244212,Chicago,United States,3148366,1
Shukla Bose,27.0377554,88.263176,Darjeeling,India,940686,1
Siamak Hariri,50.735851,7.10066,Bonn,Germany,1098436,1
Siddhartha Mukherjee,28.6138954,77.2090057,New Delhi,India,1294952,1
Simon Lewis,41.4899827,-71.3137707,Newport,United States,690977,1
Simon Sinek,51.4220721,-0.2052902,London,United Kingdom,20556685,2
Sivamani,13.0836939,80.270186,Chennai,India,556163,1
Sonia Shah,40.7127281,-74.0060152,New York,United States,1118305,1
Sophie Hunger,46.9484742,7.4521749,Bern,Switzerland,518461,1
Spencer Wells,33.9528472,-84.5496148,Marietta,United States,665947,1
Srdja Popovic,44.8178131,20.4568974,Stari Grad Urban Municipality,Serbia,276132,1
Srikumar Rao,18.9733536,72.82810491917377,Mumbai,India,971594,1
Stanley McChrystal,39.345184,-94.921703,Leavenworth,United States,1729539,2
Stefan Wolff,53.5672881,9.941726150411604,Hamburg,Germany,307628,1
Stefon Harris,42.6511674,-73.754968,City of Albany,United States,653303,1
Stephanie Busari,6.4550575,3.3941795,Lagos,Nigeria,1036236,1
Stephen Friend,41.0534302,-73.5387341,Stamford,United States,959404,1
Stephen Hawking,51.7520131,-1.2578499,Oxford,United Kingdom,8655723,1
Stephen Wolfram,51.4893335,-0.1440550845276872,London,United Kingdom,1542898,1
Steve Howard,42.3554334,-71.060511,Boston,United States,1041748,1
Steve Jobs,37.7790262,-122.419906,San Francisco,United States,8744428,1
Steve Silberman,42.4396039,-76.4968019,City of Ithaca,United States,1476377,1
Steve Truglia,51.4893335,-0.1440550845276872,London,United Kingdom,571893,1
Steven  Cowley,52.2055314,0.1186637,Cambridge,United Kingdom,706235,1
Steven Levitt,42.3554334,-71.060511,Boston,United States,1806583,2
Steven Pinker,45.5031824,-73.5698065,Montreal,Canada,1673889,3
Steven Strogatz,41.8006523,-73.1212214,Torrington,United States,642201,1
Stew,34.0536909,-118.242766,Los Angeles,United States,577502,1
Stewart Brand,42.2713945,-89.093966,Rockford,United States,942451,4
Sting,41.2587459,-95.9383758,Omaha,United States,1934877,1
Stuart Brown,41.8755616,-87.6244212,Chicago,United States,1625469,1
Stuart Russell,51.2715316,-0.3414523511290909,Mole Valley,United Kingdom,1085138,1
Sue Austin,52.4796992,-1.9026911,Birmingham,United Kingdom,2052286,1
Sue Desmond-Hellmann,38.2971367,-122.2855293,Napa,United States,929167,1
Sue Klebold,39.9622601,-83.0007065,Columbus,United States,2359347,1
Sugata Mitra,22.5726459,88.3638953,Kolkata,India,2303869,3
Suheir Hammad,31.9515694,35.9239625,Amman,Jordan,599444,1
Suki Kim,37.5666791,126.9782914,Seoul,South Korea,3460338,1
Sunitha Krishnan,12.9767936,77.590082,Bengaluru,India,2543750,1
Susan Blackmore,51.4893335,-0.1440550845276872,London,United Kingdom,735638,1
Susan Lim,2.7188285,101.9404831,Seremban,Malaysia,620231,1
Susan Pinker,45.5031824,-73.5698065,Montreal,Canada,1159426,1
Susan Robinson,41.4996574,-81.6936772,Cleveland,United States,1026708,1
Susan Shaw,22.3150313,114.17205092613688,Kowloon,China,220099,1
Susan Solomon,41.8755616,-87.6244212,Chicago,United States,832831,1
Suzana Herculano-Houzel,-22.9110137,-43.2093727,Rio de Janeiro,Brazil,2454860,1
Suzanne Lee,40.7985464,-81.3749508,Canton,United States,1218882,1
Svante Pääbo,59.3251172,18.0710935,Stockholm,Sweden,1399333,1
Sylvia Earle,39.82410645,-75.27820967980284,Greenwich Township,United States,1139732,1
Sō Percussion,39.1014537,-84.5124602,Cincinnati,United States,767660,1
TED staff,37.4443293,-122.1598465,Palo Alto,United States,741146,1
Taiye Selasi,51.5074456,-0.1277653,City of Westminster,United Kingdom,2141928,1
Takaharu Tezuka,35.6840574,139.7744912,Chuo,Japan,4160772,1
Talithia Williams,39.9622601,-83.0007065,Columbus,United States,1345444,1
Taryn Simon,40.7127281,-74.0060152,New York,United States,1179117,2
Tavi Gevinson,41.8755616,-87.6244212,Chicago,United States,1447603,1
Taylor Mali,40.7127281,-74.0060152,New York,United States,676741,1
Taylor Wilson,33.4254259,-94.0430937,Texarkana,United States,2369507,2
Ted Halstead,41.8755616,-87.6244212,Chicago,United States,1022042,1
Teddy Cruz,14.6424667,-90.5131361,Guatemala City,Guatemala,691538,1
Temple Grandin,42.3554334,-71.060511,Boston,United States,4375111,1
Terry Moore,34.1469416,-118.2478471,Glendale,United States,4760754,2
Thandie Newton,51.4893335,-0.1440550845276872,London,United Kingdom,2462734,1
Theaster Gates,41.8755616,-87.6244212,Chicago,United States,1024661,1
Thelma Golden,40.7135078,-73.8283132,New York,United States,524790,1
Theo Jansen,52.1067449,4.2736937,The Hague,Netherlands,3982352,1
They Might Be Giants,51.4816546,-3.1791934,Cardiff,United Kingdom,362609,1
Thom Mayne,41.5538091,-73.0438362,Waterbury,United States,660909,1
Thomas Barnett,37.5385087,-77.43428,Richmond,United States,1136037,1
Thomas Dolby,51.4893335,-0.1440550845276872,London,United Kingdom,577356,1
Thomas Heatherwick,51.4893335,-0.1440550845276872,London,United Kingdom,1586547,1
Thomas Insel,39.7589478,-84.1916069,Dayton,United States,1188149,1
Thomas P. Campbell,1.357107,103.8194992,Singapore,Singapore,625454,1
Tim Berners-Lee,51.4893335,-0.1440550845276872,London,United Kingdom,1029051,3
Tim Birkhead,53.7974185,-1.5437941,Leeds,United Kingdom,112321,1
Tim Jackson,51.5074456,-0.1277653,City of Westminster,United Kingdom,899942,1
Tim Urban,47.2455013,-122.438329,Tacoma,United States,14745406,1
Titus Kaphar,42.291707,-85.5872286,Kalamazoo,United States,890748,1
Tom Shannon,44.9772995,-93.2654692,Minneapolis,United States,1069653,1
Tom Wujec,49.8955367,-97.1384584,Winnipeg,Canada,1997689,4
Tomás Saraceno,-26.8303703,-65.2038133,San Miguel de Tucumán,Argentina,248411,1
Tony Fadell,42.3315509,-83.0466403,Detroit,United States,2006050,1
Tony Robbins,34.0536909,-118.242766,Los Angeles,United States,20685401,1
Tracy Chevalier,38.8950368,-77.0365427,Washington D.C,United States,1191702,1
Travis Kalanick,34.0536909,-118.242766,Los Angeles,United States,1587546,1
Tristram Stuart,51.5074456,-0.1277653,City of Westminster,United Kingdom,1471114,1
Trita Parsi,31.3230637,48.67932,Ahwaz,Iran,740772,1
Tshering Tobgay,9.2905517,42.1885672,Harar,Ethiopia,1954438,1
Uldus Bakhtiozina,27.7700475,-82.6359078,Saint Petersburg,United States,1464877,1
Uri Alon,30.8124247,34.8594762,Ramat Negev Regional Council,Israel,1013296,1
Van Jones,35.6144446,-88.8177418,Jackson,United States,462012,1
Vanessa Ruiz,18.465299,-66.116666,San Juan,United States,1257468,1
Vijay Kumar,12.9767936,77.590082,Bengaluru,India,2791793,2
Vik Muniz,-23.5506507,-46.6333824,São Paulo,Brazil,1149090,1
Vikram Patel,18.9733536,72.82810491917377,Mumbai,India,933277,1
Viktor Frankl,48.2083537,16.3725042,Vienna,Austria,1028630,1
Vincent Cochetel,47.3900474,0.6889268,Tours,France,1161560,1
Virginia Postrel,34.851354,-82.3984882,Greenville,United States,379382,1
Vusi Mahlasela,-25.7459277,28.1879101,Pretoria,South Africa,474280,2
Wadah Khanfar,32.3561008,35.1709493,Rama,Palestine,922923,1
Wade Davis,49.3311208,-123.159479,West Vancouver,Canada,1758537,2
Wael Ghonim,30.0443879,31.2357257,Cairo,Egypt,1100437,2
Wanuri Kahiu,-1.2832533,36.8172449,Nairobi,Kenya,522917,1
Wendy Freedman,43.6534817,-79.3839347,Old Toronto,Canada,1272185,1
Will Wright,33.7489924,-84.3902644,Atlanta,United States,1107307,1
William Li,53.4794892,-2.2451148,Manchester,United Kingdom,4149065,1
William Ury,41.8755616,-87.6244212,Chicago,United States,1828181,1
Yang Lan,39.9057136,116.3912972,Dongcheng District,China,1776828,1
Yanis Varoufakis,33.9597677,-83.376398,Athens-Clarke County Unified Government,United States,2269380,1
Yann Arthus-Bertrand,48.8588897,2.3200410217200766,Paris,France,751889,1
Yasheng Huang,39.9057136,116.3912972,Dongcheng District,China,992224,1
Yassmin Abdel-Magied,-4.3554206,15.306724334350497,Khartoum,Sudan,1863929,1
Yoruba Richen,40.7127281,-74.0060152,New York,United States,698636,1
Yossi Vardi,32.0852997,34.7818064,Tel Aviv-Yafo,Israel,933311,1
Yves Behar,46.5218269,6.6327025,Lausanne,Switzerland,833239,2
Zainab Salbi,33.3061701,44.3872213,Baghdad,Iraq,505716,1
Zak Ebrahim,40.4416941,-79.9900861,Pittsburgh,United States,4619628,1
Ziyah Gafić,43.8519774,18.3866868,Sarajevo,Bosnia and Herzegovina,1000194,1
Zubaida Bai,13.0836939,80.270186,Chennai,India,801279,1
iO Tillett Wright,40.7127281,-74.0060152,New York,United States,2679698,1
